NORAD_CAT_ID,OBJECT_NAME,OBJECT_TYPE,EPOCH,MEAN_MOTION,ECCENTRICITY,INCLINATION,RA_OF_ASC_NODE,ARG_OF_PERICENTER,MEAN_ANOMALY,BSTAR,MEAN_MOTION_DOT,MEAN_MOTION_DDOT,TLE_LINE0,TLE_LINE1,TLE_LINE2,SEMIMAJOR_AXIS,PERIOD,APOGEE,PERIGEE,DECAYED
52674.0,STARLINK-3936,PAYLOAD,2022-09-30 11:22:36,15.08839669,0.0001973,53.2184,33.5017,48.0227,312.0933,0.0012702,0.00019985,0.0,0 STARLINK-3936,1 52674U 22053U   22273.47403349  .00019985  00000-0  12702-2 0  9992,2 52674  53.2184  33.5017 0001973  48.0227 312.0933 15.08839669 21404,6917.880999999999,95.438,541.111,538.382,0.0
52674.0,STARLINK-3936,PAYLOAD,2022-09-30 19:19:32,15.08855962,0.0001986,53.2186,32.0152,47.9472,312.1689,0.0014965,0.0002362,0.0,0 STARLINK-3936,1 52674U 22053U   22273.80523194  .00023620  00000-0  14965-2 0  9994,2 52674  53.2186  32.0152 0001986  47.9472 312.1689 15.08855962 21452,6917.831999999999,95.437,541.07,538.323,0.0
52674.0,STARLINK-3936,PAYLOAD,2022-10-01 12:48:45,15.08865217,0.0001884,53.2187,28.7439,50.1956,309.9202,0.00054536,8.408e-05,0.0,0 STARLINK-3936,1 52674U 22053U   22274.53386015  .00008408  00000-0  54536-3 0  9990,2 52674  53.2187  28.7439 0001884  50.1956 309.9202 15.08865217 21126,6917.803000000001,95.436,540.972,538.365,0.0
52674.0,STARLINK-3936,PAYLOAD,2022-10-01 19:10:17,15.08871339,0.0001979,53.2187,27.5546,45.9315,314.184,0.00060794,9.409e-05,0.0,0 STARLINK-3936,1 52674U 22053U   22274.79881575  .00009409  00000-0  60794-3 0  9994,2 52674  53.2187  27.5546 0001979  45.9315 314.1840 15.08871339 21609,6917.785,95.436,541.019,538.281,0.0
52674.0,STARLINK-3936,PAYLOAD,2022-10-02 03:07:13,15.08854103,0.0001835,53.2189,26.068,51.26,308.8556,-5.4639e-05,-1.158e-05,0.0,0 STARLINK-3936,1 52674U 22053U   22275.13001499 -.00001158  00000-0 -54639-4 0  9999,2 52674  53.2189  26.0680 0001835  51.2600 308.8556 15.08854103 21213,6917.837,95.437,540.972,538.433,0.0
52674.0,STARLINK-3936,PAYLOAD,2022-10-02 09:28:46,15.08824313,0.0001961,53.219,24.8791,44.1662,315.9486,-2.3718e-05,-6.65e-06,0.0,0 STARLINK-3936,1 52674U 22053U   22275.39498190 -.00000665  00000-0 -23718-4 0  9991,2 52674  53.2190  24.8791 0001961  44.1662 315.9486 15.08824313 21258,6917.928000000001,95.439,541.15,538.437,0.0
52674.0,STARLINK-3936,PAYLOAD,2022-10-02 12:39:32,15.08824298,0.0001931,53.219,24.2844,41.3326,318.7812,0.00054353,8.369e-05,0.0,0 STARLINK-3936,1 52674U 22053U   22275.52746439  .00008369  00000-0  54353-3 0  9993,2 52674  53.2190  24.2844 0001931  41.3326 318.7812 15.08824298 21711,6917.928000000001,95.439,541.129,538.4580000000002,0.0
52674.0,STARLINK-3936,PAYLOAD,2022-10-02 19:01:05,15.08828453,0.0001926,53.2188,23.0947,41.4136,318.7001,0.0014003,0.00022061,0.0,0 STARLINK-3936,1 52674U 22053U   22275.79242771  .00022061  00000-0  14003-2 0  9994,2 52674  53.2188  23.0947 0001926  41.4136 318.7001 15.08828453 21754,6917.916,95.438,541.113,538.448,0.0
52674.0,STARLINK-3936,PAYLOAD,2022-10-03 02:58:01,15.08844767,0.0001426999999999,53.2188,21.608,50.862,309.2499,0.0019008,0.00030097,0.0,0 STARLINK-3936,1 52674U 22053U   22276.12362774  .00030097  00000-0  19008-2 0  9996,2 52674  53.2188  21.6080 0001427  50.8620 309.2499 15.08844767 21363,6917.866,95.437,540.7180000000002,538.744,0.0
52674.0,STARLINK-3936,PAYLOAD,2022-10-03 14:05:42,15.08871451,0.0001844999999999,53.2184,19.5266,45.7828,314.3316,0.0018555999999999,0.00029393,0.0,0 STARLINK-3936,1 52674U 22053U   22276.58730251  .00029393  00000-0  18556-2 0  9999,2 52674  53.2184  19.5266 0001845  45.7828 314.3316 15.08871451 21879,6917.784000000002,95.436,540.9259999999998,538.373,0.0
52674.0,STARLINK-3936,PAYLOAD,2022-10-03 17:16:29,15.08864576,0.0001972,53.2182,18.932,41.2809,318.8332,0.0013419,0.00021147,0.0,0 STARLINK-3936,1 52674U 22053U   22276.71978324  .00021147  00000-0  13419-2 0  9991,2 52674  53.2182  18.9320 0001972  41.2809 318.8332 15.08864576 21453,6917.805,95.436,541.034,538.306,0.0
52674.0,STARLINK-3936,PAYLOAD,2022-10-03 18:51:52,15.08866157,0.0001818,53.2174,18.6341,37.936,322.176,0.0013224,0.00020836,0.0,0 STARLINK-3936,1 52674U 22053U   22276.78602217  .00020836  00000-0  13224-2 0  9991,2 52674  53.2174  18.6341 0001818  37.9360 322.1760 15.08866157 21907,6917.8,95.436,540.923,538.408,0.0
52674.0,STARLINK-3936,PAYLOAD,2022-10-04 12:21:05,15.08881517,0.0001982,53.2169,15.3633,42.9829,317.1317,0.0016984,0.00026877,0.0,0 STARLINK-3936,1 52674U 22053U   22277.51465020  .00026877  00000-0  16984-2 0  9999,2 52674  53.2169  15.3633 0001982  42.9829 317.1317 15.08881517 21579,6917.753000000002,95.435,540.99,538.247,0.0
52674.0,STARLINK-3936,PAYLOAD,2022-10-04 13:56:28,15.08885576,0.0001986999999999,53.2169,15.0659,43.4841,316.6308,0.0018522,0.0002935,0.0,0 STARLINK-3936,1 52674U 22053U   22277.58088829  .00029350  00000-0  18522-2 0  9993,2 52674  53.2169  15.0659 0001987  43.4841 316.6308 15.08885576 22023,6917.741,95.435,540.981,538.232,0.0
52674.0,STARLINK-3936,PAYLOAD,2022-10-04 18:42:37,15.08872313,0.0001906999999999,53.2171,14.1731,45.7477,314.3671,0.0007167,0.00011147,0.0,0 STARLINK-3936,1 52674U 22053U   22277.77960559  .00011147  00000-0  71670-3 0  9992,2 52674  53.2171  14.1731 0001907  45.7477 314.3671 15.08872313 21616,6917.781999999997,95.436,540.966,538.327,0.0
52674.0,STARLINK-3936,PAYLOAD,2022-10-05 04:14:57,15.08846522,0.0001828,53.2165,12.3894,42.3452,317.7681,0.00052446,8.070000000000001e-05,0.0,0 STARLINK-3936,1 52674U 22053U   22278.17704870  .00008070  00000-0  52446-3 0  9990,2 52674  53.2165  12.3894 0001828  42.3452 317.7681 15.08846522 21674,6917.86,95.437,540.99,538.461,0.0
52674.0,STARLINK-3936,PAYLOAD,2022-10-05 12:11:52,15.08837885,0.0001875999999999,53.2164,10.9031,41.7002,318.4133,0.00089116,0.00013922,0.0,0 STARLINK-3936,1 52674U 22053U   22278.50825135  .00013922  00000-0  89116-3 0  9991,2 52674  53.2164  10.9031 0001876  41.7002 318.4133 15.08837885 22164,6917.887,95.438,541.05,538.4540000000002,0.0
52674.0,STARLINK-3936,PAYLOAD,2022-10-05 15:22:39,15.08831977,0.000206,53.2164,10.3085,41.8687,318.2463,0.00086864,0.0001356,0.0,0 STARLINK-3936,1 52674U 22053U   22278.64073408  .00013560  00000-0  86864-3 0  9999,2 52674  53.2164  10.3085 0002060  41.8687 318.2463 15.08831977 21746,6917.905,95.438,541.195,538.345,0.0
52674.0,STARLINK-3936,PAYLOAD,2022-10-05 18:33:25,15.08832737,0.0002031,53.2162,9.7139,41.8882,318.2266,0.00095274,0.00014904,0.0,0 STARLINK-3936,1 52674U 22053U   22278.77321484  .00014904  00000-0  95274-3 0  9991,2 52674  53.2162   9.7139 0002031  41.8882 318.2266 15.08832737 22209,6917.903,95.438,541.173,538.363,0.0
52674.0,STARLINK-3936,PAYLOAD,2022-10-06 12:02:40,15.08840219,0.0002112999999999,53.2164,6.4429,40.2973,319.8175,0.0012050999999999,0.00018943,0.0,0 STARLINK-3936,1 52674U 22053U   22279.50186071  .00018943  00000-0  12051-2 0  9992,2 52674  53.2164   6.4429 0002113  40.2973 319.8175 15.08840219 22314,6917.88,95.438,541.206,538.283,0.0
52674.0,STARLINK-3936,PAYLOAD,2022-10-06 13:38:03,15.08842305,0.0002017,53.2165,6.1453,41.7927,318.3219,0.00086396,0.0001349,0.0,0 STARLINK-3936,1 52674U 22053U   22279.56809975  .00013490  00000-0  86396-3 0  9999,2 52674  53.2165   6.1453 0002017  41.7927 318.3219 15.08842305 22329,6917.873000000001,95.437,541.134,538.3430000000002,0.0
52674.0,STARLINK-3936,PAYLOAD,2022-10-06 23:10:22,15.08841155,0.0002097,53.2165,4.3614,43.841,316.2748,0.00060574,9.366e-05,0.0,0 STARLINK-3936,1 52674U 22053U   22279.96554152  .00009366  00000-0  60574-3 0  9994,2 52674  53.2165   4.3614 0002097  43.8410 316.2748 15.08841155 21949,6917.877,95.437,541.193,538.2909999999998,0.0
52674.0,STARLINK-3936,PAYLOAD,2022-10-07 11:53:27,15.08857477,0.0001928,53.2163,1.9815,42.3532,317.7609,0.00079447,0.00012385,0.0,0 STARLINK-3936,1 52674U 22053U   22280.49545625  .00012385  00000-0  79447-3 0  9993,2 52674  53.2163   1.9815 0001928  42.3532 317.7609 15.08857477 22468,6917.8269999999975,95.436,541.026,538.3580000000002,0.0
52674.0,STARLINK-3936,PAYLOAD,2022-10-07 23:01:09,15.0885009,0.0001931,53.2167,359.9007,34.6135,325.4983,0.00026619,3.952e-05,0.0,0 STARLINK-3936,1 52674U 22053U   22280.95913456  .00003952  00000-0  26619-3 0  9998,2 52674  53.2167 359.9007 0001931  34.6135 325.4983 15.08850090 22092,6917.85,95.437,541.05,538.379,0.0
52674.0,STARLINK-3936,PAYLOAD,2022-10-08 10:08:51,15.08836152,0.0001974,53.2169,357.8187,40.1794,319.9344,-5.1966e-05,-1.115e-05,0.0,0 STARLINK-3936,1 52674U 22053U   22281.42281965 -.00001115  00000-0 -51966-4 0  9999,2 52674  53.2169 357.8187 0001974  40.1794 319.9344 15.08836152 22160,6917.892,95.438,541.123,538.3919999999998,0.0
52674.0,STARLINK-3936,PAYLOAD,2022-10-08 11:44:14,15.08836607,0.000198,53.2169,357.521,42.9902,317.1244,-1.3806e-05,-5.08e-06,0.0,0 STARLINK-3936,1 52674U 22053U   22281.48906122 -.00000508  00000-0 -13806-4 0  9990,2 52674  53.2169 357.5210 0001980  42.9902 317.1244 15.08836607 22616,6917.891,95.438,541.126,538.386,0.0
52674.0,STARLINK-3936,PAYLOAD,2022-10-09 11:35:01,15.08838795,0.0001999,53.217,353.0606,38.9342,321.1794,5.1485e-05,5.31e-06,0.0,0 STARLINK-3936,1 52674U 22053U   22282.48266076  .00000531  00000-0  51485-4 0  9997,2 52674  53.2170 353.0606 0001999  38.9342 321.1794 15.08838795 22324,6917.884,95.438,541.132,538.366,0.0
52674.0,STARLINK-3936,PAYLOAD,2022-10-10 11:25:48,15.08837955,0.000202,53.2172,348.6006,39.6183,320.4956,9.8247e-05,1.276e-05,0.0,0 STARLINK-3936,1 52674U 22053U   22283.47626129  .00001276  00000-0  98247-4 0  9990,2 52674  53.2172 348.6006 0002020  39.6183 320.4956 15.08837955 22911,6917.887,95.438,541.149,538.354,0.0
52674.0,STARLINK-3936,PAYLOAD,2022-10-10 20:58:07,15.08837427,0.000208,53.217,346.8167,40.0129,320.1016,9.3031e-05,1.193e-05,0.0,0 STARLINK-3936,1 52674U 22053U   22283.87370313  .00001193  00000-0  93031-4 0  9999,2 52674  53.2170 346.8167 0002080  40.0129 320.1016 15.08837427 22973,6917.888000000001,95.438,541.192,538.314,0.0
